STARLINK-3310           
1 50835U 22001AJ  26049.82708307  .00000567  00000+0  53737-4 0  9998
2 50835  53.2168 263.9158 0001488 103.6972 256.4186 15.08835020227411
STARLINK-3330           
1 50836U 22001AK  26049.80593471 -.00001496  00000+0 -75952-4 0  9998
2 50836  53.2166 263.6734 0001413  92.2682 267.8472 15.08822517227316
STARLINK-3318           
1 50837U 22001AL  26049.78750600 -.00000477  00000+0 -11906-4 0  9992
2 50837  53.2162 253.9759 0001385  88.4073 271.7078 15.08836967227557
STARLINK-3320           
1 50839U 22001AN  26049.80499581  .00000830  00000+0  70240-4 0  9992
2 50839  53.2163 263.8991 0001376  90.0216 270.0934 15.08847553227406
STARLINK-3295           
1 50840U 22001AP  26049.86754971 -.00000140  00000+0  92735-5 0  9996
2 50840  53.2160 263.6186 0001593  89.6569 270.4605 15.08835627227414
STARLINK-3300           
1 50841U 22001AQ  26049.81234842  .00000704  00000+0  62362-4 0  9999
2 50841  53.2164 263.8653 0001456  96.7823 263.3335 15.08826214227413
STARLINK-3302           
1 50842U 22001AR  26049.86386493  .00000219  00000+0  31853-4 0  9997
2 50842  53.2165 263.6362 0001503  83.2136 276.9027 15.08841346227412
STARLINK-3325           
1 50843U 22001AS  26049.91671296  .00101443  00000+0  30235-2 0  9994
2 50843  53.2162 260.6208 0001691  77.6253  83.6587 15.33870512  5807
STARLINK-3326           
1 50844U 22001AT  26049.85282950  .00001352  00000+0  10296-3 0  9997
2 50844  53.2162 263.6863 0001666  64.9479 295.1686 15.08854954227427
STARLINK-3230           
1 50845U 22001AU  26049.76451044  .00000370  00000+0  41346-4 0  9990
2 50845  53.2164 264.0810 0001554  92.0471 268.0699 15.08836873227419
STARLINK-3308           
1 50846U 22001AV  26049.86019982 -.00000290  00000+0 -98885-7 0  9999
2 50846  53.2169 263.7678 0001469  87.9324 272.1836 15.08844254227420
STARLINK-3315           
1 50848U 22001AX  26049.84546960  .00000006  00000+0  18451-4 0  9991
2 50848  53.2169 263.7186 0001538  82.2990 277.8177 15.08841214227423
STARLINK-3311           
1 50849U 22001AY  26049.85650620  .00000044  00000+0  20831-4 0  9999
2 50849  53.2161 263.6692 0001367  92.0000 268.1149 15.08848334227420
STARLINK-3312           
1 50850U 22001AZ  26049.79395876  .00001480  00000+0  11106-3 0  9992
2 50850  53.2161 223.9474 0001685  91.6939 268.4247 15.08831915228518
STARLINK-3314           
1 50851U 22001BA  26049.83441969  .00000644  00000+0  58574-4 0  9995
2 50851  53.2164 263.6913 0001587  92.9889 267.1285 15.08837795227429
STARLINK-3366           
1 51104U 22005A   26049.13247423  .00004573  00000+0  30551-3 0  9992
2 51104  53.2188  16.9189 0001820  97.6671 262.4528 15.08807583225925
STARLINK-3350           
1 51105U 22005B   26049.30543226 -.00002023  00000+0 -10910-3 0  9999
2 51105  53.2195  16.1424 0001353  71.8451 288.2688 15.08829367225959
