[{"OBJECT_NAME":"STARLINK-3310","OBJECT_ID":"2022-001AJ","EPOCH":"2026-02-18T19:50:59.977248","MEAN_MOTION":15.0883502,"ECCENTRICITY":0.0001488,"INCLINATION":53.2168,"RA_OF_ASC_NODE":263.9158,"ARG_OF_PERICENTER":103.6972,"MEAN_ANOMALY":256.4186,"EPHEMERIS_TYPE":0,"CLASSIFICATION_TYPE":"U","NORAD_CAT_ID":50835,"ELEMENT_SET_NO":999,"REV_AT_EPOCH":22741,"BSTAR":5.3737e-5,"MEAN_MOTION_DOT":5.67e-6,"MEAN_MOTION_DDOT":0},{"OBJECT_NAME":"STARLINK-3330","OBJECT_ID":"2022-001AK","EPOCH":"2026-02-18T19:20:32.758944","MEAN_MOTION":15.08822517,"ECCENTRICITY":0.0001413,"INCLINATION":53.2166,"RA_OF_ASC_NODE":263.6734,"ARG_OF_PERICENTER":92.2682,"MEAN_ANOMALY":267.8472,"EPHEMERIS_TYPE":0,"CLASSIFICATION_TYPE":"U","NORAD_CAT_ID":50836,"ELEMENT_SET_NO":999,"REV_AT_EPOCH":22731,"BSTAR":-7.5952e-5,"MEAN_MOTION_DOT":-1.496e-5,"MEAN_MOTION_DDOT":0},{"OBJECT_NAME":"STARLINK-3318","OBJECT_ID":"2022-001AL","EPOCH":"2026-02-18T18:54:00.518400","MEAN_MOTION":15.08836967,"ECCENTRICITY":0.0001385,"INCLINATION":53.2162,"RA_OF_ASC_NODE":253.9759,"ARG_OF_PERICENTER":88.4073,"MEAN_ANOMALY":271.7078,"EPHEMERIS_TYPE":0,"CLASSIFICATION_TYPE":"U","NORAD_CAT_ID":50837,"ELEMENT_SET_NO":999,"REV_AT_EPOCH":22755,"BSTAR":-1.1906e-5,"MEAN_MOTION_DOT":-4.77e-6,"MEAN_MOTION_DDOT":0},{"OBJECT_NAME":"STARLINK-3320","OBJECT_ID":"2022-001AN","EPOCH":"2026-02-18T19:19:11.637984","MEAN_MOTION":15.08847553,"ECCENTRICITY":0.0001376,"INCLINATION":53.2163,"RA_OF_ASC_NODE":263.8991,"ARG_OF_PERICENTER":90.0216,"MEAN_ANOMALY":270.0934,"EPHEMERIS_TYPE":0,"CLASSIFICATION_TYPE":"U","NORAD_CAT_ID":50839,"ELEMENT_SET_NO":999,"REV_AT_EPOCH":22740,"BSTAR":7.024e-5,"MEAN_MOTION_DOT":8.3e-6,"MEAN_MOTION_DDOT":0},{"OBJECT_NAME":"STARLINK-3295","OBJECT_ID":"2022-001AP","EPOCH":"2026-02-18T20:49:16.294944","MEAN_MOTION":15.08835627,"ECCENTRICITY":0.0001593,"INCLINATION":53.216,"RA_OF_ASC_NODE":263.6186,"ARG_OF_PERICENTER":89.6569,"MEAN_ANOMALY":270.4605,"EPHEMERIS_TYPE":0,"CLASSIFICATION_TYPE":"U","NORAD_CAT_ID":50840,"ELEMENT_SET_NO":999,"REV_AT_EPOCH":22741,"BSTAR":9.2735e-6,"MEAN_MOTION_DOT":-1.4e-6,"MEAN_MOTION_DDOT":0},{"OBJECT_NAME":"STARLINK-3300","OBJECT_ID":"2022-001AQ","EPOCH":"2026-02-18T19:29:46.903488","MEAN_MOTION":15.08826214,"ECCENTRICITY":0.0001456,"INCLINATION":53.2164,"RA_OF_ASC_NODE":263.8653,"ARG_OF_PERICENTER":96.7823,"MEAN_ANOMALY":263.3335,"EPHEMERIS_TYPE":0,"CLASSIFICATION_TYPE":"U","NORAD_CAT_ID":50841,"ELEMENT_SET_NO":999,"REV_AT_EPOCH":22741,"BSTAR":6.2362e-5,"MEAN_MOTION_DOT":7.04e-6,"MEAN_MOTION_DDOT":0},{"OBJECT_NAME":"STARLINK-3302","OBJECT_ID":"2022-001AR","EPOCH":"2026-02-18T20:43:57.929952","MEAN_MOTION":15.08841346,"ECCENTRICITY":0.0001503,"INCLINATION":53.2165,"RA_OF_ASC_NODE":263.6362,"ARG_OF_PERICENTER":83.2136,"MEAN_ANOMALY":276.9027,"EPHEMERIS_TYPE":0,"CLASSIFICATION_TYPE":"U","NORAD_CAT_ID":50842,"ELEMENT_SET_NO":999,"REV_AT_EPOCH":22741,"BSTAR":3.1853e-5,"MEAN_MOTION_DOT":2.19e-6,"MEAN_MOTION_DDOT":0},{"OBJECT_NAME":"STARLINK-3325","OBJECT_ID":"2022-001AS","EPOCH":"2026-02-18T22:00:03.999744","MEAN_MOTION":15.33870512,"ECCENTRICITY":0.0001691,"INCLINATION":53.2162,"RA_OF_ASC_NODE":260.6208,"ARG_OF_PERICENTER":77.6253,"MEAN_ANOMALY":83.6587,"EPHEMERIS_TYPE":0,"CLASSIFICATION_TYPE":"U","NORAD_CAT_ID":50843,"ELEMENT_SET_NO":999,"REV_AT_EPOCH":580,"BSTAR":0.0030235,"MEAN_MOTION_DOT":0.00101443,"MEAN_MOTION_DDOT":0},{"OBJECT_NAME":"STARLINK-3326","OBJECT_ID":"2022-001AT","EPOCH":"2026-02-18T20:28:04.468800","MEAN_MOTION":15.08854954,"ECCENTRICITY":0.0001666,"INCLINATION":53.2162,"RA_OF_ASC_NODE":263.6863,"ARG_OF_PERICENTER":64.9479,"MEAN_ANOMALY":295.1686,"EPHEMERIS_TYPE":0,"CLASSIFICATION_TYPE":"U","NORAD_CAT_ID":50844,"ELEMENT_SET_NO":999,"REV_AT_EPOCH":22742,"BSTAR":0.00010296,"MEAN_MOTION_DOT":1.352e-5,"MEAN_MOTION_DDOT":0},{"OBJECT_NAME":"STARLINK-3230","OBJECT_ID":"2022-001AU","EPOCH":"2026-02-18T18:20:53.702016","MEAN_MOTION":15.08836873,"ECCENTRICITY":0.0001554,"INCLINATION":53.2164,"RA_OF_ASC_NODE":264.081,"ARG_OF_PERICENTER":92.0471,"MEAN_ANOMALY":268.0699,"EPHEMERIS_TYPE":0,"CLASSIFICATION_TYPE":"U","NORAD_CAT_ID":50845,"ELEMENT_SET_NO":999,"REV_AT_EPOCH":22741,"BSTAR":4.1346e-5,"MEAN_MOTION_DOT":3.7e-6,"MEAN_MOTION_DDOT":0},{"OBJECT_NAME":"STARLINK-3308","OBJECT_ID":"2022-001AV","EPOCH":"2026-02-18T20:38:41.264448","MEAN_MOTION":15.08844254,"ECCENTRICITY":0.0001469,"INCLINATION":53.2169,"RA_OF_ASC_NODE":263.7678,"ARG_OF_PERICENTER":87.9324,"MEAN_ANOMALY":272.1836,"EPHEMERIS_TYPE":0,"CLASSIFICATION_TYPE":"U","NORAD_CAT_ID":50846,"ELEMENT_SET_NO":999,"REV_AT_EPOCH":22742,"BSTAR":-9.8885e-8,"MEAN_MOTION_DOT":-2.9e-6,"MEAN_MOTION_DDOT":0},{"OBJECT_NAME":"STARLINK-3315","OBJECT_ID":"2022-001AX","EPOCH":"2026-02-18T20:17:28.573440","MEAN_MOTION":15.08841214,"ECCENTRICITY":0.0001538,"INCLINATION":53.2169,"RA_OF_ASC_NODE":263.7186,"ARG_OF_PERICENTER":82.299,"MEAN_ANOMALY":277.8177,"EPHEMERIS_TYPE":0,"CLASSIFICATION_TYPE":"U","NORAD_CAT_ID":50848,"ELEMENT_SET_NO":999,"REV_AT_EPOCH":22742,"BSTAR":1.8451e-5,"MEAN_MOTION_DOT":6.0e-8,"MEAN_MOTION_DDOT":0},{"OBJECT_NAME":"STARLINK-3311","OBJECT_ID":"2022-001AY","EPOCH":"2026-02-18T20:33:22.135680","MEAN_MOTION":15.08848334,"ECCENTRICITY":0.0001367,"INCLINATION":53.2161,"RA_OF_ASC_NODE":263.6692,"ARG_OF_PERICENTER":92,"MEAN_ANOMALY":268.1149,"EPHEMERIS_TYPE":0,"CLASSIFICATION_TYPE":"U","NORAD_CAT_ID":50849,"ELEMENT_SET_NO":999,"REV_AT_EPOCH":22742,"BSTAR":2.0831e-5,"MEAN_MOTION_DOT":4.4e-7,"MEAN_MOTION_DDOT":0},{"OBJECT_NAME":"STARLINK-3312","OBJECT_ID":"2022-001AZ","EPOCH":"2026-02-18T19:03:18.036864","MEAN_MOTION":15.08831915,"ECCENTRICITY":0.0001685,"INCLINATION":53.2161,"RA_OF_ASC_NODE":223.9474,"ARG_OF_PERICENTER":91.6939,"MEAN_ANOMALY":268.4247,"EPHEMERIS_TYPE":0,"CLASSIFICATION_TYPE":"U","NORAD_CAT_ID":50850,"ELEMENT_SET_NO":999,"REV_AT_EPOCH":22851,"BSTAR":0.00011106,"MEAN_MOTION_DOT":1.48e-5,"MEAN_MOTION_DDOT":0},{"OBJECT_NAME":"STARLINK-3314","OBJECT_ID":"2022-001BA","EPOCH":"2026-02-18T20:01:33.861216","MEAN_MOTION":15.08837795,"ECCENTRICITY":0.0001587,"INCLINATION":53.2164,"RA_OF_ASC_NODE":263.6913,"ARG_OF_PERICENTER":92.9889,"MEAN_ANOMALY":267.1285,"EPHEMERIS_TYPE":0,"CLASSIFICATION_TYPE":"U","NORAD_CAT_ID":50851,"ELEMENT_SET_NO":999,"REV_AT_EPOCH":22742,"BSTAR":5.8574e-5,"MEAN_MOTION_DOT":6.44e-6,"MEAN_MOTION_DDOT":0},{"OBJECT_NAME":"STARLINK-3366","OBJECT_ID":"2022-005A","EPOCH":"2026-02-18T03:10:45.773472","MEAN_MOTION":15.08807583,"ECCENTRICITY":0.00018206,"INCLINATION":53.2188,"RA_OF_ASC_NODE":16.9189,"ARG_OF_PERICENTER":97.6671,"MEAN_ANOMALY":262.4528,"EPHEMERIS_TYPE":0,"CLASSIFICATION_TYPE":"U","NORAD_CAT_ID":51104,"ELEMENT_SET_NO":999,"REV_AT_EPOCH":22592,"BSTAR":0.00030551496,"MEAN_MOTION_DOT":4.573e-5,"MEAN_MOTION_DDOT":0},{"OBJECT_NAME":"STARLINK-3350","OBJECT_ID":"2022-005B","EPOCH":"2026-02-18T07:19:49.347264","MEAN_MOTION":15.08829367,"ECCENTRICITY":0.0001353,"INCLINATION":53.2195,"RA_OF_ASC_NODE":16.1424,"ARG_OF_PERICENTER":71.8451,"MEAN_ANOMALY":288.2688,"EPHEMERIS_TYPE":0,"CLASSIFICATION_TYPE":"U","NORAD_CAT_ID":51105,"ELEMENT_SET_NO":999,"REV_AT_EPOCH":22595,"BSTAR":-0.0001091,"MEAN_MOTION_DOT":-2.023e-5,"MEAN_MOTION_DDOT":0}]
